GLOBALSTAR M075 [+]     
1 37192U 10054E   24032.86525034 -.00000088  00000+0  89957-4 0  9994
2 37192  51.9938 267.9579 0000718  71.8130  58.0415 12.62270336612699
GLOBALSTAR M073 [+]     
1 37193U 10054F   24032.87254903 -.00000089  00000+0  82034-4 0  9990
2 37193  52.0042 181.3643 0000941  96.2976  69.0099 12.62272005614525
GLOBALSTAR M088 [+]     
1 37740U 11033B   24032.46324521 -.00000097  00000+0  35423-4 0  9994
2 37740  51.9749  37.9417 0000243 156.1493   8.5173 12.62264471579030
GLOBALSTAR M085 [+]     
1 37742U 11033D   24032.92914148 -.00000078  00000+0  14392-3 0  9997
2 37742  51.9886 310.6677 0000373  72.7078  49.1527 12.62267223580392
GLOBALSTAR M081 [+]     
1 37743U 11033E   24032.77440637 -.00000079  00000+0  13807-3 0  9999
2 37743  51.9980 313.6155 0000318  36.5047 342.2400 12.62268994580523
GLOBALSTAR M089 [+]     
1 37744U 11033F   24032.83730183 -.00000096  00000+0  43956-4 0  9993
2 37744  51.9933 267.7441 0000933  50.9708  74.3308 12.62253997581377
